ONEWEB-0300             
1 49089U 21075Q   24276.47502080  .00000484  00000+0  13109-2 0  9993
2 49089  87.8845 114.6871 0001454  95.2440 264.8855 13.12444393154516
ONEWEB-0301             
1 49090U 21075R   24276.07761862  .00000366  00000+0  98317-3 0  9990
2 49090  87.8849 114.7701 0001522  93.6709 266.4593 13.12445758153827
ONEWEB-0302             
1 49091U 21075S   24276.29333456 -.00000225  00000+0 -66116-3 0  9997
2 49091  87.8846 114.7263 0001708  76.5669 283.5649 13.12444262153842
ONEWEB-0304             
1 49092U 21075T   24275.58052854  .00000146  00000+0  34329-3 0  9990
2 49092  87.9106 130.0926 0001668  71.6485 288.4828 13.17647974152434
ONEWEB-0305             
1 49093U 21075U   24276.33314887  .00000215  00000+0  52040-3 0  9999
2 49093  87.9100 129.9276 0001458  66.5387 293.5897 13.17651274152559
ONEWEB-0308             
1 49094U 21075V   24276.28686643 -.00000140  00000+0 -42371-3 0  9991
2 49094  87.8848 114.7257 0001602  85.6360 274.4952 13.12445043153857
ONEWEB-0309             
1 49095U 21075W   24276.33650554  .00000187  00000+0  44717-3 0  9995
2 49095  87.9103 129.9347 0002189  73.5404 286.5968 13.17647883152544
ONEWEB-0310             
1 49096U 21075X   24276.30147380  .00000338  00000+0  90421-3 0  9992
2 49096  87.8858 114.7404 0001778  81.6347 278.4983 13.12444771154484
